[
    {
        "CCSDS_OMM_VERS": "3.0",
        "COMMENT": "GENERATED VIA SPACE-TRACK.ORG API",
        "CREATION_DATE": "2025-05-02T02:33:21",
        "ORIGINATOR": "18 SPCS",
        "OBJECT_NAME": "COSMOS 2464 (GLONASS)",
        "OBJECT_ID": "2010-041C",
        "CENTER_NAME": "EARTH",
        "REF_FRAME": "TEME",
        "TIME_SYSTEM": "UTC",
        "MEAN_ELEMENT_THEORY": "SGP4",
        "EPOCH": "2025-05-01T07:26:56.450112",
        "MEAN_MOTION": "2.13099121",
        "ECCENTRICITY": "0.00330140",
        "INCLINATION": "63.9137",
        "RA_OF_ASC_NODE": "204.3689",
        "ARG_OF_PERICENTER": "10.4700",
        "MEAN_ANOMALY": "40.6431",
        "EPHEMERIS_TYPE": "0",
        "CLASSIFICATION_TYPE": "U",
        "NORAD_CAT_ID": "37139",
        "ELEMENT_SET_NO": "999",
        "REV_AT_EPOCH": "11411",
        "BSTAR": "0.00000000000000",
        "MEAN_MOTION_DOT": "0.00000014",
        "MEAN_MOTION_DDOT": "0.0000000000000",
        "SEMIMAJOR_AXIS": "25508.254",
        "PERIOD": "675.742",
        "APOAPSIS": "19214.332",
        "PERIAPSIS": "19045.906",
        "OBJECT_TYPE": "PAYLOAD",
        "RCS_SIZE": "LARGE",
        "COUNTRY_CODE": "CIS",
        "LAUNCH_DATE": "2010-09-02",
        "SITE": "TTMTR",
        "DECAY_DATE": null,
        "FILE": "4716572",
        "GP_ID": "286606420",
        "TLE_LINE0": "0 COSMOS 2464 (GLONASS)",
        "TLE_LINE1": "1 37139U 10041C   25121.31037558  .00000014  00000-0  00000-0 0  9997",
        "TLE_LINE2": "2 37139  63.9137 204.3689 0033014  10.4700  40.6431  2.13099121114113"
    }
]